COMMENT,ORIGINATOR,NORAD_CAT_ID,OBJECT_NAME,OBJECT_TYPE,CLASSIFICATION_TYPE,INTLDES,EPOCH,EPOCH_MICROSECONDS,MEAN_MOTION,ECCENTRICITY,INCLINATION,RA_OF_ASC_NODE,ARG_OF_PERICENTER,MEAN_ANOMALY,EPHEMERIS_TYPE,ELEMENT_SET_NO,REV_AT_EPOCH,BSTAR,MEAN_MOTION_DOT,MEAN_MOTION_DDOT,FILE,TLE_LINE0,TLE_LINE1,TLE_LINE2,OBJECT_ID,OBJECT_NUMBER,SEMIMAJOR_AXIS,PERIOD,APOGEE,PERIGEE,DECAYED,date
GENERATED VIA SPACETRACK.ORG API,18 SPCS,48904,SPACEBEE-111,PAYLOAD,U,21059AB,2023/2/23 20:07,570752,15.24949825,0.0009325,97.5824,190.6829,303.6241,56.4106,0,999,9213,0.0013583,0.00033932,0,3830532,0 SPACEBEE-111,1 48904U 21059AB  23054.83845568  .00033932  00000-0  13583-2 0  9995,2 48904  97.5824 190.6829 0009325 303.6241  56.4106 15.24949825 92131,2021-059AB,48904,6869.073,94.429,497.344,484.533,0,2023/4/26
GENERATED VIA SPACETRACK.ORG API,18 SPCS,48904,SPACEBEE-111,PAYLOAD,U,21059AB,2023/2/24 3:59,242624,15.24973371,0.0009283,97.5822,191.0151,302.3931,57.6407,0,999,9218,0.0014524,0.00036325,0,3830967,0 SPACEBEE-111,1 48904U 21059AB  23055.16654216  .00036325  00000-0  14524-2 0  9995,2 48904  97.5822 191.0151 0009283 302.3931  57.6407 15.24973371 92182,2021-059AB,48904,6869.002,94.428,497.244,484.491,0,2023/4/27
GENERATED VIA SPACETRACK.ORG API,18 SPCS,48904,SPACEBEE-111,PAYLOAD,U,21059AB,2023/2/24 8:43,68800,15.24986133,0.0009265,97.5823,191.2144,301.6879,58.3455,0,999,9221,0.0013902,0.00034772,0,3832867,0 SPACEBEE-111,1 48904U 21059AB  23055.36339200  .00034772  00000-0  13902-2 0  9993,2 48904  97.5823 191.2144 0009265 301.6879  58.3455 15.24986133 92215,2021-059AB,48904,6868.964,94.427,497.193,484.465,0,2023/4/28
GENERATED VIA SPACETRACK.ORG API,18 SPCS,48904,SPACEBEE-111,PAYLOAD,U,21059AB,2023/2/24 19:44,508096,15.25008595,0.0009268,97.5823,191.6796,299.9149,60.1167,0,999,9228,0.0010514,0.00026267,0,3835059,0 SPACEBEE-111,1 48904U 21059AB  23055.82270264  .00026267  00000-0  10514-2 0  9994,2 48904  97.5823 191.6796 0009268 299.9149  60.1167 15.25008595 92280,2021-059AB,48904,6868.897,94.426,497.128,484.396,0,2023/4/29
GENERATED VIA SPACETRACK.ORG API,18 SPCS,48904,SPACEBEE-111,PAYLOAD,U,21059AB,2023/2/24 21:19,646688,15.25012459,0.0009272,97.5823,191.7461,299.6067,60.4246,0,999,9229,0.0010429,0.00026057,0,3835583,0 SPACEBEE-111,1 48904U 21059AB  23055.88831767  .00026057  00000-0  10429-2 0  9993,2 48904  97.5823 191.7461 0009272 299.6067  60.4246 15.25012459 92297,2021-059AB,48904,6868.885,94.425,497.119,484.381,0,2023/4/30
GENERATED VIA SPACETRACK.ORG API,18 SPCS,48904,SPACEBEE-111,PAYLOAD,U,21059AB,2023/2/25 8:20,363680,15.25037351,0.0009289,97.5821,192.2112,297.8087,62.2209,0,999,9236,0.0010949,0.00027385,0,3837605,0 SPACEBEE-111,1 48904U 21059AB  23056.34761995  .00027385  00000-0  10949-2 0  9992,2 48904  97.5821 192.2112 0009289 297.8087  62.2209 15.25037351 92369,2021-059AB,48904,6868.81,94.424,497.056,484.295,0,
GENERATED VIA SPACETRACK.ORG API,18 SPCS,48904,SPACEBEE-111,PAYLOAD,U,21059AB,2023/2/25 20:56,420064,15.2506781,0.0009299,97.582,192.7428,295.7799,64.2478,0,999,9244,0.0012433,0.00031151,0,3839003,0 SPACEBEE-111,1 48904U 21059AB  23056.87252801  .00031151  00000-0  12433-2 0  9997,2 48904  97.5820 192.7428 0009299 295.7799  64.2478 15.25067810 92443,2021-059AB,48904,6868.719,94.422,496.971,484.197,0,
GENERATED VIA SPACETRACK.ORG API,18 SPCS,48904,SPACEBEE-111,PAYLOAD,U,21059AB,2023/2/25 22:30,369440,15.25071168,0.000929,97.582,192.8094,295.607,64.4207,0,999,9245,0.0012526,0.00031388,0,3839474,0 SPACEBEE-111,1 48904U 21059AB  23056.93814085  .00031388  00000-0  12526-2 0  9997,2 48904  97.5820 192.8094 0009290 295.6070  64.4207 15.25071168 92459,2021-059AB,48904,6868.709,94.422,496.955,484.193,0,
GENERATED VIA SPACETRACK.ORG API,18 SPCS,48904,SPACEBEE-111,PAYLOAD,U,21059AB,2023/2/26 14:15,767648,15.25117409,0.0009326,97.582,193.4738,293.3701,66.6555,0,999,9255,0.0014128,0.00035481,0,3841853,0 SPACEBEE-111,1 48904U 21059AB  23057.59425657  .00035481  00000-0  14128-2 0  9991,2 48904  97.5820 193.4738 0009326 293.3701  66.6555 15.25117409 92557,2021-059AB,48904,6868.57,94.419,496.841,484.029,0,
GENERATED VIA SPACETRACK.ORG API,18 SPCS,48904,SPACEBEE-111,PAYLOAD,U,21059AB,2023/2/27 2:51,312384,15.25152728,0.0009359,97.5821,194.0059,291.8532,68.1709,0,999,9263,0.001397,0.00035119,0,3843642,0 SPACEBEE-111,1 48904U 21059AB  23058.11913556  .00035119  00000-0  13970-2 0  9992,2 48904  97.5821 194.0059 0009359 291.8532  68.1709 15.25152728 92632,2021-059AB,48904,6868.464,94.417,496.757,483.901,0,
GENERATED VIA SPACETRACK.ORG API,18 SPCS,48904,SPACEBEE-111,PAYLOAD,U,21059AB,2023/2/27 7:34,992384,15.25177755,0.0009351,97.5819,194.205,291.1158,68.908,0,999,9266,0.0017931,0.00045192,0,3845301,0 SPACEBEE-111,1 48904U 21059AB  23058.31596056  .00045192  00000-0  17931-2 0  9999,2 48904  97.5819 194.2050 0009351 291.1158  68.9080 15.25177755 92661,2021-059AB,48904,6868.389,94.415,496.676,483.831,0,
GENERATED VIA SPACETRACK.ORG API,18 SPCS,48904,SPACEBEE-111,PAYLOAD,U,21059AB,2023/2/27 7:34,992384,15.25177755,0.0009351,97.5819,194.205,291.1158,68.908,0,999,9266,0.0017931,0.00045192,0,3846396,0 SPACEBEE-111,1 48904U 21059AB  23058.31596056  .00045192  00000-0  17931-2 0  9999,2 48904  97.5819 194.2050 0009351 291.1158  68.9080 15.25177755 92661,2021-059AB,48904,6868.389,94.415,496.676,483.831,0,
GENERATED VIA SPACETRACK.ORG API,18 SPCS,48904,SPACEBEE-111,PAYLOAD,U,21059AB,2023/2/28 2:28,499680,15.25260116,0.0009258,97.5819,195.0026,288.2093,71.8137,0,999,9278,0.0019966,0.00050488,0,3847050,0 SPACEBEE-111,1 48904U 21059AB  23059.10323495  .00050488  00000-0  19966-2 0  9996,2 48904  97.5819 195.0026 0009258 288.2093  71.8137 15.25260116 92787,2021-059AB,48904,6868.141,94.41,496.365,483.648,0,
GENERATED VIA SPACETRACK.ORG API,18 SPCS,48904,SPACEBEE-111,PAYLOAD,U,21059AB,2023/2/28 8:46,209248,15.25285305,0.0009237,97.5818,195.2686,287.2354,72.7873,0,999,9282,0.0018513,0.00046821,0,3847542,0 SPACEBEE-111,1 48904U 21059AB  23059.36565057  .00046821  00000-0  18513-2 0  9999,2 48904  97.5818 195.2686 0009237 287.2354  72.7873 15.25285305 92825,2021-059AB,48904,6868.066,94.409,496.275,483.587,0,
GENERATED VIA SPACETRACK.ORG API,18 SPCS,48904,SPACEBEE-111,PAYLOAD,U,21059AB,2023/2/28 21:22,731552,15.25318865,0.0009224,97.5818,195.8003,285.2806,74.7412,0,999,9290,0.0012031,0.00030365,0,3847656,0 SPACEBEE-111,1 48904U 21059AB  23059.89047143  .00030365  00000-0  12031-2 0  9993,2 48904  97.5818 195.8003 0009224 285.2806  74.7412 15.25318865 92908,2021-059AB,48904,6867.965,94.406,496.165,483.495,0,
GENERATED VIA SPACETRACK.ORG API,18 SPCS,48904,SPACEBEE-111,PAYLOAD,U,21059AB,2023/2/28 21:22,731552,15.25318865,0.0009224,97.5818,195.8003,285.2806,74.7412,0,999,9290,0.0012031,0.00030365,0,3848083,0 SPACEBEE-111,1 48904U 21059AB  23059.89047143  .00030365  00000-0  12031-2 0  9993,2 48904  97.5818 195.8003 0009224 285.2806  74.7412 15.25318865 92908,2021-059AB,48904,6867.965,94.406,496.165,483.495,0,
GENERATED VIA SPACETRACK.ORG API,18 SPCS,48904,SPACEBEE-111,PAYLOAD,U,21059AB,2023/3/1 8:23,233632,15.25357856,0.0009257,97.5817,196.2657,283.6546,76.366,0,999,9297,0.001497,0.00037883,0,3848353,0 SPACEBEE-111,1 48904U 21059AB  23060.34967863  .00037883  00000-0  14970-2 0  9991,2 48904  97.5817 196.2657 0009257 283.6546  76.3660 15.25357856 92979,2021-059AB,48904,6867.848,94.404,496.071,483.356,0,
GENERATED VIA SPACETRACK.ORG API,18 SPCS,48904,SPACEBEE-111,PAYLOAD,U,21059AB,2023/3/1 8:23,233632,15.25357856,0.0009257,97.5817,196.2657,283.6546,76.366,0,999,9297,0.001497,0.00037883,0,3848834,0 SPACEBEE-111,1 48904U 21059AB  23060.34967863  .00037883  00000-0  14970-2 0  9991,2 48904  97.5817 196.2657 0009257 283.6546  76.3660 15.25357856 92979,2021-059AB,48904,6867.848,94.404,496.071,483.356,0,
GENERATED VIA SPACETRACK.ORG API,18 SPCS,48904,SPACEBEE-111,PAYLOAD,U,21059AB,2023/3/2 19:01,336256,15.25458318,0.000937,97.5819,197.7283,278.6103,81.4073,0,999,9319,0.001447,0.00036721,0,3849361,0 SPACEBEE-111,1 48904U 21059AB  23061.79283954  .00036721  00000-0  14470-2 0  9998,2 48904  97.5819 197.7283 0009370 278.6103  81.4073 15.25458318 93196,2021-059AB,48904,6867.547,94.398,495.846,482.977,0,
GENERATED VIA SPACETRACK.ORG API,18 SPCS,48904,SPACEBEE-111,PAYLOAD,U,21059AB,2023/3/2 19:01,336256,15.25458318,0.000937,97.5819,197.7283,278.6103,81.4073,0,999,9319,0.001447,0.00036721,0,3849487,0 SPACEBEE-111,1 48904U 21059AB  23061.79283954  .00036721  00000-0  14470-2 0  9998,2 48904  97.5819 197.7283 0009370 278.6103  81.4073 15.25458318 93196,2021-059AB,48904,6867.547,94.398,495.846,482.977,0,
GENERATED VIA SPACETRACK.ORG API,18 SPCS,48904,SPACEBEE-111,PAYLOAD,U,21059AB,2023/3/3 7:37,493984,15.25512723,0.0009366,97.5821,198.2604,277.0986,82.9186,0,999,9327,0.0019723,0.00050251,0,3849727,0 SPACEBEE-111,1 48904U 21059AB  23062.31759831  .00050251  00000-0  19723-2 0  9999,2 48904  97.5821 198.2604 0009366 277.0986  82.9186 15.25512723 93270,2021-059AB,48904,6867.383,94.394,495.68,482.816,0,
GENERATED VIA SPACETRACK.ORG API,18 SPCS,48904,SPACEBEE-111,PAYLOAD,U,21059AB,2023/3/3 7:37,493984,15.25512723,0.0009366,97.5821,198.2604,277.0986,82.9186,0,999,9327,0.0019723,0.00050251,0,3850163,0 SPACEBEE-111,1 48904U 21059AB  23062.31759831  .00050251  00000-0  19723-2 0  9999,2 48904  97.5821 198.2604 0009366 277.0986  82.9186 15.25512723 93270,2021-059AB,48904,6867.383,94.394,495.68,482.816,0,
GENERATED VIA SPACETRACK.ORG API,18 SPCS,48904,SPACEBEE-111,PAYLOAD,U,21059AB,2023/3/3 21:47,302336,15.25564025,0.0009298,97.5821,198.8586,274.7919,85.2257,0,999,9336,0.0017401,0.00044359,0,3850400,0 SPACEBEE-111,1 48904U 21059AB  23062.90793174  .00044359  00000-0  17401-2 0  9995,2 48904  97.5821 198.8586 0009298 274.7919  85.2257 15.25564025 93366,2021-059AB,48904,6867.229,94.391,495.479,482.709,0,
